CCSDS_OMM_VERS = 2.0
CREATION_DATE  = 
ORIGINATOR     = 

OBJECT_NAME    = STARLINK-35788
OBJECT_ID      = 2025-280L
CENTER_NAME    = EARTH
REF_FRAME      = TEME
TIME_SYSTEM    = UTC
MEAN_ELEMENT_THEORY = SGP/SGP4

EPOCH          = 2025-12-20T14:00:03.000384
MEAN_MOTION    = 15.52509212
ECCENTRICITY   = .00031656
INCLINATION    = 69.9998
RA_OF_ASC_NODE = 176.9111
ARG_OF_PERICENTER = 265.0881
MEAN_ANOMALY   = 27.0826

EPHEMERIS_TYPE = 0
CLASSIFICATION_TYPE = U
NORAD_CAT_ID   = 66831
ELEMENT_SET_NO = 999
REV_AT_EPOCH   = 415
BSTAR          = .34992595E-3
MEAN_MOTION_DOT = .2141E-3
MEAN_MOTION_DDOT = 0

CCSDS_OMM_VERS = 2.0
CREATION_DATE  = 
ORIGINATOR     = 

OBJECT_NAME    = STARLINK-35768
OBJECT_ID      = 2025-280M
CENTER_NAME    = EARTH
REF_FRAME      = TEME
TIME_SYSTEM    = UTC
MEAN_ELEMENT_THEORY = SGP/SGP4

EPOCH          = 2025-12-20T14:00:03.000384
MEAN_MOTION    = 15.52517512
ECCENTRICITY   = .00031896
INCLINATION    = 70.0000
RA_OF_ASC_NODE = 176.9081
ARG_OF_PERICENTER = 264.0039
MEAN_ANOMALY   = 30.0732

EPHEMERIS_TYPE = 0
CLASSIFICATION_TYPE = U
NORAD_CAT_ID   = 66832
ELEMENT_SET_NO = 999
REV_AT_EPOCH   = 415
BSTAR          = .25806939E-3
MEAN_MOTION_DOT = .15739E-3
MEAN_MOTION_DDOT = 0

CCSDS_OMM_VERS = 2.0
CREATION_DATE  = 
ORIGINATOR     = 

OBJECT_NAME    = STARLINK-35858
OBJECT_ID      = 2025-280N
CENTER_NAME    = EARTH
REF_FRAME      = TEME
TIME_SYSTEM    = UTC
MEAN_ELEMENT_THEORY = SGP/SGP4

EPOCH          = 2025-12-20T14:00:03.000384
MEAN_MOTION    = 15.52509735
ECCENTRICITY   = .00032714
INCLINATION    = 70.0000
RA_OF_ASC_NODE = 176.9053
ARG_OF_PERICENTER = 261.5183
MEAN_ANOMALY   = 34.4783

EPHEMERIS_TYPE = 0
CLASSIFICATION_TYPE = U
NORAD_CAT_ID   = 66833
ELEMENT_SET_NO = 999
REV_AT_EPOCH   = 415
BSTAR          = .41031523E-3
MEAN_MOTION_DOT = .25147E-3
MEAN_MOTION_DDOT = 0

CCSDS_OMM_VERS = 2.0
CREATION_DATE  = 
ORIGINATOR     = 

OBJECT_NAME    = STARLINK-35840
OBJECT_ID      = 2025-280P
CENTER_NAME    = EARTH
REF_FRAME      = TEME
TIME_SYSTEM    = UTC
MEAN_ELEMENT_THEORY = SGP/SGP4

EPOCH          = 2025-12-20T14:00:03.000384
MEAN_MOTION    = 15.52531201
ECCENTRICITY   = .0003181
INCLINATION    = 69.9999
RA_OF_ASC_NODE = 176.9025
ARG_OF_PERICENTER = 262.0459
MEAN_ANOMALY   = 35.8156

EPHEMERIS_TYPE = 0
CLASSIFICATION_TYPE = U
NORAD_CAT_ID   = 66834
ELEMENT_SET_NO = 999
REV_AT_EPOCH   = 415
BSTAR          = .39789936E-3
MEAN_MOTION_DOT = .24397E-3
MEAN_MOTION_DDOT = 0

CCSDS_OMM_VERS = 2.0
CREATION_DATE  = 
ORIGINATOR     = 

OBJECT_NAME    = STARLINK-35890
OBJECT_ID      = 2025-280Q
CENTER_NAME    = EARTH
REF_FRAME      = TEME
TIME_SYSTEM    = UTC
MEAN_ELEMENT_THEORY = SGP/SGP4

EPOCH          = 2025-12-20T14:00:03.000384
MEAN_MOTION    = 15.52523963
ECCENTRICITY   = .00030486
INCLINATION    = 70.0000
RA_OF_ASC_NODE = 176.9003
ARG_OF_PERICENTER = 264.4201
MEAN_ANOMALY   = 35.3790

EPHEMERIS_TYPE = 0
CLASSIFICATION_TYPE = U
NORAD_CAT_ID   = 66835
ELEMENT_SET_NO = 999
REV_AT_EPOCH   = 415
BSTAR          = .41745206E-3
MEAN_MOTION_DOT = .25601E-3
MEAN_MOTION_DDOT = 0

CCSDS_OMM_VERS = 2.0
CREATION_DATE  = 
ORIGINATOR     = 

OBJECT_NAME    = STARLINK-35838
OBJECT_ID      = 2025-280R
CENTER_NAME    = EARTH
REF_FRAME      = TEME
TIME_SYSTEM    = UTC
MEAN_ELEMENT_THEORY = SGP/SGP4

EPOCH          = 2025-12-20T14:00:03.000384
MEAN_MOTION    = 15.52509989
ECCENTRICITY   = .00031301
INCLINATION    = 70.0002
RA_OF_ASC_NODE = 176.8976
ARG_OF_PERICENTER = 266.4250
MEAN_ANOMALY   = 35.3259

EPHEMERIS_TYPE = 0
CLASSIFICATION_TYPE = U
NORAD_CAT_ID   = 66836
ELEMENT_SET_NO = 999
REV_AT_EPOCH   = 415
BSTAR          = .3672693E-3
MEAN_MOTION_DOT = .22483E-3
MEAN_MOTION_DDOT = 0

CCSDS_OMM_VERS = 2.0
CREATION_DATE  = 
ORIGINATOR     = 

OBJECT_NAME    = STARLINK-35729
OBJECT_ID      = 2025-280S
CENTER_NAME    = EARTH
REF_FRAME      = TEME
TIME_SYSTEM    = UTC
MEAN_ELEMENT_THEORY = SGP/SGP4

EPOCH          = 2025-12-20T14:00:03.000384
MEAN_MOTION    = 15.52517984
ECCENTRICITY   = .00035377
INCLINATION    = 70.0002
RA_OF_ASC_NODE = 176.8959
ARG_OF_PERICENTER = 267.6361
MEAN_ANOMALY   = 36.0223

EPHEMERIS_TYPE = 0
CLASSIFICATION_TYPE = U
NORAD_CAT_ID   = 66837
ELEMENT_SET_NO = 999
REV_AT_EPOCH   = 415
BSTAR          = .27221251E-3
MEAN_MOTION_DOT = .16614E-3
MEAN_MOTION_DDOT = 0

CCSDS_OMM_VERS = 2.0
CREATION_DATE  = 
ORIGINATOR     = 

OBJECT_NAME    = STARLINK-35886
OBJECT_ID      = 2025-280T
CENTER_NAME    = EARTH
REF_FRAME      = TEME
TIME_SYSTEM    = UTC
MEAN_ELEMENT_THEORY = SGP/SGP4

EPOCH          = 2025-12-20T14:00:03.000384
MEAN_MOTION    = 15.52492375
ECCENTRICITY   = .00025184
INCLINATION    = 70.0002
RA_OF_ASC_NODE = 176.8909
ARG_OF_PERICENTER = 280.4917
MEAN_ANOMALY   = 27.0799

EPHEMERIS_TYPE = 0
CLASSIFICATION_TYPE = U
NORAD_CAT_ID   = 66838
ELEMENT_SET_NO = 999
REV_AT_EPOCH   = 415
BSTAR          = .47058046E-3
MEAN_MOTION_DOT = .28858E-3
MEAN_MOTION_DDOT = 0

CCSDS_OMM_VERS = 2.0
CREATION_DATE  = 
ORIGINATOR     = 

OBJECT_NAME    = STARLINK-35717
OBJECT_ID      = 2025-280U
CENTER_NAME    = EARTH
REF_FRAME      = TEME
TIME_SYSTEM    = UTC
MEAN_ELEMENT_THEORY = SGP/SGP4

EPOCH          = 2025-12-20T14:00:03.000384
MEAN_MOTION    = 15.52511584
ECCENTRICITY   = .00031928
INCLINATION    = 70.0003
RA_OF_ASC_NODE = 176.8928
ARG_OF_PERICENTER = 264.1613
MEAN_ANOMALY   = 41.4155

EPHEMERIS_TYPE = 0
CLASSIFICATION_TYPE = U
NORAD_CAT_ID   = 66839
ELEMENT_SET_NO = 999
REV_AT_EPOCH   = 415
BSTAR          = .36935197E-3
MEAN_MOTION_DOT = .22614E-3
MEAN_MOTION_DDOT = 0

CCSDS_OMM_VERS = 2.0
CREATION_DATE  = 
ORIGINATOR     = 

OBJECT_NAME    = STARLINK-35837
OBJECT_ID      = 2025-280V
CENTER_NAME    = EARTH
REF_FRAME      = TEME
TIME_SYSTEM    = UTC
MEAN_ELEMENT_THEORY = SGP/SGP4

EPOCH          = 2025-12-20T14:00:03.000384
MEAN_MOTION    = 15.52511577
ECCENTRICITY   = .00030419
INCLINATION    = 70.0001
RA_OF_ASC_NODE = 176.8887
ARG_OF_PERICENTER = 266.0103
MEAN_ANOMALY   = 43.4033

EPHEMERIS_TYPE = 0
CLASSIFICATION_TYPE = U
NORAD_CAT_ID   = 66840
ELEMENT_SET_NO = 999
REV_AT_EPOCH   = 415
BSTAR          = .33881807E-3
MEAN_MOTION_DOT = .20725E-3
MEAN_MOTION_DDOT = 0

CCSDS_OMM_VERS = 2.0
CREATION_DATE  = 
ORIGINATOR     = 

OBJECT_NAME    = STARLINK-35715
OBJECT_ID      = 2025-280W
CENTER_NAME    = EARTH
REF_FRAME      = TEME
TIME_SYSTEM    = UTC
MEAN_ELEMENT_THEORY = SGP/SGP4

EPOCH          = 2025-12-20T14:00:03.000384
MEAN_MOTION    = 15.52513799
ECCENTRICITY   = .00030929
INCLINATION    = 70.0002
RA_OF_ASC_NODE = 176.8865
ARG_OF_PERICENTER = 265.2455
MEAN_ANOMALY   = 46.0806

EPHEMERIS_TYPE = 0
CLASSIFICATION_TYPE = U
NORAD_CAT_ID   = 66841
ELEMENT_SET_NO = 999
REV_AT_EPOCH   = 415
BSTAR          = .327274E-3
MEAN_MOTION_DOT = .20013E-3
MEAN_MOTION_DDOT = 0

CCSDS_OMM_VERS = 2.0
CREATION_DATE  = 
ORIGINATOR     = 

OBJECT_NAME    = STARLINK-35769
OBJECT_ID      = 2025-280X
CENTER_NAME    = EARTH
REF_FRAME      = TEME
TIME_SYSTEM    = UTC
MEAN_ELEMENT_THEORY = SGP/SGP4

EPOCH          = 2025-12-20T14:00:03.000384
MEAN_MOTION    = 15.52509619
ECCENTRICITY   = .00030328
INCLINATION    = 70.0001
RA_OF_ASC_NODE = 176.8841
ARG_OF_PERICENTER = 264.6443
MEAN_ANOMALY   = 48.6073

EPHEMERIS_TYPE = 0
CLASSIFICATION_TYPE = U
NORAD_CAT_ID   = 66842
ELEMENT_SET_NO = 999
REV_AT_EPOCH   = 415
BSTAR          = .35661449E-3
MEAN_MOTION_DOT = .21824E-3
MEAN_MOTION_DDOT = 0

