STARLINK-35788          
1 66831U 25280L   25354.58336806  .00021410  00000+0  34993-3 0  9997
2 66831  69.9998 176.9111 0003165 265.0881  27.0826 15.52509212  4154
STARLINK-35768          
1 66832U 25280M   25354.58336806  .00015739  00000+0  25807-3 0  9999
2 66832  70.0000 176.9081 0003189 264.0039  30.0732 15.52517512  4150
STARLINK-35858          
1 66833U 25280N   25354.58336806  .00025147  00000+0  41032-3 0  9992
2 66833  70.0000 176.9053 0003271 261.5183  34.4783 15.52509735  4156
STARLINK-35840          
1 66834U 25280P   25354.58336806  .00024397  00000+0  39790-3 0  9997
2 66834  69.9999 176.9025 0003181 262.0459  35.8156 15.52531201  4154
STARLINK-35890          
1 66835U 25280Q   25354.58336806  .00025601  00000+0  41745-3 0  9990
2 66835  70.0000 176.9003 0003048 264.4201  35.3790 15.52523963  4155
STARLINK-35838          
1 66836U 25280R   25354.58336806  .00022483  00000+0  36727-3 0  9990
2 66836  70.0002 176.8976 0003130 266.4250  35.3259 15.52509989  4156
STARLINK-35729          
1 66837U 25280S   25354.58336806  .00016614  00000+0  27221-3 0  9999
2 66837  70.0002 176.8959 0003537 267.6361  36.0223 15.52517984  4158
STARLINK-35886          
1 66838U 25280T   25354.58336806  .00028858  00000+0  47058-3 0  9993
2 66838  70.0002 176.8909 0002518 280.4917  27.0799 15.52492375  4156
STARLINK-35717          
1 66839U 25280U   25354.58336806  .00022614  00000+0  36935-3 0  9990
2 66839  70.0003 176.8928 0003192 264.1613  41.4155 15.52511584  4150
STARLINK-35837          
1 66840U 25280V   25354.58336806  .00020725  00000+0  33882-3 0  9991
2 66840  70.0001 176.8887 0003041 266.0103  43.4033 15.52511577  4151
STARLINK-35715          
1 66841U 25280W   25354.58336806  .00020013  00000+0  32727-3 0  9999
2 66841  70.0002 176.8865 0003092 265.2455  46.0806 15.52513799  4151
STARLINK-35769          
1 66842U 25280X   25354.58336806  .00021824  00000+0  35661-3 0  9991
2 66842  70.0001 176.8841 0003032 264.6443  48.6073 15.52509619  4159
